NOAA 15                 
1 25338U 98030A   22359.45876081  .00000124  00000+0  69776-4 0  9996
2 25338  98.6257  26.3234 0011425 100.1535 260.0934 14.26212188280490
NOAA 18                 
1 28654U 05018A   22359.42488649  .00000218  00000+0  14091-3 0  9993
2 28654  98.9306  69.5278 0014884 148.9578 211.2476 14.12827398907033
NOAA 19                 
1 33591U 09005A   22359.51892280  .00000149  00000+0  10511-3 0  9995
2 33591  99.1258  37.4636 0014045  15.2787 344.8805 14.12656101715428
METOP-B                 
1 38771U 12049A   22359.47590278  .00000111  00000+0  70932-4 0  9992
2 38771  98.7054  56.5368 0001158 130.1175  65.7917 14.21488332532862
SARAL                   
1 39086U 13009A   22359.13506687  .00000085  00000+0  47686-4 0  9993
2 39086  98.5448 181.9723 0002041  80.9888 279.1526 14.32057649513771
METOP-C                 
1 43689U 18087A   22359.47419382  .00000109  00000+0  69777-4 0  9992
2 43689  98.7100  56.5838 0003035 186.2279 173.8861 14.21494170214440
ANGELS                  
1 44876U 19092D   22358.78572856  .00003800  00000+0  18419-3 0  9994
2 44876  97.4724 179.9679 0013110  59.2679 300.9845 15.19062628167122
GAZELLE                 
1 54023U 22127A   22359.03311585 -.00000042  00000+0  00000+0 0  9990
2 54023  98.3149 356.3539 0014601  63.0587 297.2146 14.41670449 11288
EOS-6 (OCEANSAT-3)      
1 54361U 22158A   22359.51619833  .00059712  00000+0  16271-1 0  9995
2 54361  98.3544  93.8662 0001816  82.7362 277.4180 14.47035633  4225
